IRIDIUM 126             
1 42809U 17039G   24150.53244204  .00000295  00000+0  98105-4 0  9991
2 42809  86.3943 306.5029 0002060  85.6446 274.4985 14.34218241362644
IRIDIUM 124             
1 42810U 17039H   24150.34871934  .00000510  00000+0  14568-3 0  9998
2 42810  86.4511 243.2945 0002156 103.5285 256.6156 14.43267409367107
IRIDIUM 128             
1 42811U 17039J   24150.59293206  .00000117  00000+0  34813-4 0  9995
2 42811  86.3961 338.0073 0001939  92.2142 267.9275 14.34215259362686
IRIDIUM 121             
1 42812U 17039K   24150.48170119  .00000162  00000+0  50927-4 0  9995
2 42812  86.3943 306.5468 0002160  93.5056 266.6387 14.34217958362510
IRIDIUM 133             
1 42955U 17061A   24150.62464933  .00000108  00000+0  31590-4 0  9999
2 42955  86.3964 338.0934 0002097  85.9624 274.1812 14.34215059347480
IRIDIUM 100             
1 42956U 17061B   24150.61830336  .00000053  00000+0  11983-4 0  9996
2 42956  86.3961 338.0318 0002088  84.9697 275.1737 14.34216573347482
IRIDIUM 122             
1 42957U 17061C   24150.58658532  .00000113  00000+0  33467-4 0  9997
2 42957  86.3962 338.0436 0002061  87.1880 272.9552 14.34215441347488
IRIDIUM 129             
1 42958U 17061D   24150.61196353  .00000108  00000+0  31651-4 0  9997
2 42958  86.3962 338.0921 0001983  85.3404 274.8018 14.34215405347503
